{
  "type": "FeatureCollection",
  "features": [
    {
      "type": "Feature",
      "properties": {
        "norad_id": 28890,
        "name": "BEIJING 1",
        "group": "dmc",
        "lat": 15.47256061696185,
        "lon": 121.70545618691047,
        "alt_km": 684.3665566830696,
        "timestamp": "2025-12-22T11:33:20.095878+00:00",
        "meta_object_name": "BEIJING 1",
        "meta_object_id": "2005-043A",
        "meta_epoch": "2025-12-22T04:55:12.660096",
        "meta_mean_motion": 14.63373633,
        "meta_eccentricity": 0.0015768,
        "meta_inclination": 98.2662,
        "meta_ra_of_asc_node": 123.7347,
        "meta_arg_of_pericenter": 113.3841,
        "meta_mean_anomaly": 246.9021,
        "meta_ephemeris_type": 0,
        "meta_classification_type": "U",
        "meta_norad_cat_id": 28890,
        "meta_element_set_no": 999,
        "meta_rev_at_epoch": 7476,
        "meta_bstar": 4.5718e-05,
        "meta_mean_motion_dot": 1.88e-06,
        "meta_mean_motion_ddot": 0,
        "tle_line1": "1 28890U 05043A   25356.20500764  .00000188  00000+0  45718-4 0  9999",
        "tle_line2": "2 28890  98.2662 123.7347 0015768 113.3841 246.9021 14.63373633 74764"
      },
      "geometry": {
        "type": "Point",
        "coordinates": [
          121.70545618691047,
          15.47256061696185
        ]
      }
    },
    {
      "type": "Feature",
      "properties": {
        "norad_id": 33320,
        "name": "HUANJING 1A (HJ-1A)",
        "group": "dmc",
        "lat": 24.332527734393054,
        "lon": -19.113028746199493,
        "alt_km": 605.2479271427246,
        "timestamp": "2025-12-22T11:33:20.095902+00:00",
        "meta_object_name": "HUANJING 1A (HJ-1A)",
        "meta_object_id": "2008-041A",
        "meta_epoch": "2025-12-22T04:58:12.442080",
        "meta_mean_motion": 14.8342319,
        "meta_eccentricity": 0.0019446,
        "meta_inclination": 97.654,
        "meta_ra_of_asc_node": 344.1104,
        "meta_arg_of_pericenter": 4.549,
        "meta_mean_anomaly": 355.5897,
        "meta_ephemeris_type": 0,
        "meta_classification_type": "U",
        "meta_norad_cat_id": 33320,
        "meta_element_set_no": 999,
        "meta_rev_at_epoch": 93216,
        "meta_bstar": 0.00022011,
        "meta_mean_motion_dot": 1.761e-05,
        "meta_mean_motion_ddot": 0,
        "tle_line1": "1 33320U 08041A   25356.20708845  .00001761  00000+0  22011-3 0  9992",
        "tle_line2": "2 33320  97.6540 344.1104 0019446   4.5490 355.5897 14.83423190932165"
      },
      "geometry": {
        "type": "Point",
        "coordinates": [
          -19.113028746199493,
          24.332527734393054
        ]
      }
    },
    {
      "type": "Feature",
      "properties": {
        "norad_id": 33321,
        "name": "HUANJING 1B (HJ-1B)",
        "group": "dmc",
        "lat": -45.08757701232882,
        "lon": 160.30705885273608,
        "alt_km": 653.689255968301,
        "timestamp": "2025-12-22T11:33:20.095916+00:00",
        "meta_object_name": "HUANJING 1B (HJ-1B)",
        "meta_object_id": "2008-041B",
        "meta_epoch": "2025-12-22T05:41:04.119072",
        "meta_mean_motion": 14.82844033,
        "meta_eccentricity": 0.0037962,
        "meta_inclination": 97.6398,
        "meta_ra_of_asc_node": 347.8109,
        "meta_arg_of_pericenter": 45.6796,
        "meta_mean_anomaly": 314.752,
        "meta_ephemeris_type": 0,
        "meta_classification_type": "U",
        "meta_norad_cat_id": 33321,
        "meta_element_set_no": 999,
        "meta_rev_at_epoch": 93218,
        "meta_bstar": 0.00011491,
        "meta_mean_motion_dot": 8.9e-06,
        "meta_mean_motion_ddot": 0,
        "tle_line1": "1 33321U 08041B   25356.23685323  .00000890  00000+0  11491-3 0  9993",
        "tle_line2": "2 33321  97.6398 347.8109 0037962  45.6796 314.7520 14.82844033932184"
      },
      "geometry": {
        "type": "Point",
        "coordinates": [
          160.30705885273608,
          -45.08757701232882
        ]
      }
    },
    {
      "type": "Feature",
      "properties": {
        "norad_id": 33446,
        "name": "YAOGAN-4",
        "group": "dmc",
        "lat": 46.827229905938026,
        "lon": 115.0184328065018,
        "alt_km": 625.0831276851877,
        "timestamp": "2025-12-22T11:33:20.095929+00:00",
        "meta_object_name": "YAOGAN-4",
        "meta_object_id": "2008-061A",
        "meta_epoch": "2025-12-21T18:45:45.373824",
        "meta_mean_motion": 14.82706695,
        "meta_eccentricity": 0.0013067,
        "meta_inclination": 97.9195,
        "meta_ra_of_asc_node": 285.7927,
        "meta_arg_of_pericenter": 291.438,
        "meta_mean_anomaly": 68.5439,
        "meta_ephemeris_type": 0,
        "meta_classification_type": "U",
        "meta_norad_cat_id": 33446,
        "meta_element_set_no": 999,
        "meta_rev_at_epoch": 91937,
        "meta_bstar": 0.0001402,
        "meta_mean_motion_dot": 1.079e-05,
        "meta_mean_motion_ddot": 0,
        "tle_line1": "1 33446U 08061A   25355.78177516  .00001079  00000+0  14020-3 0  9993",
        "tle_line2": "2 33446  97.9195 285.7927 0013067 291.4380  68.5439 14.82706695919378"
      },
      "geometry": {
        "type": "Point",
        "coordinates": [
          115.0184328065018,
          46.827229905938026
        ]
      }
    },
    {
      "type": "Feature",
      "properties": {
        "norad_id": 35681,
        "name": "DEIMOS-1",
        "group": "dmc",
        "lat": -8.793638585166907,
        "lon": 157.8328282972973,
        "alt_km": 648.8144044086985,
        "timestamp": "2025-12-22T11:33:20.095940+00:00",
        "meta_object_name": "DEIMOS-1",
        "meta_object_id": "2009-041A",
        "meta_epoch": "2025-12-22T05:04:59.209824",
        "meta_mean_motion": 14.74964719,
        "meta_eccentricity": 0.000257,
        "meta_inclination": 97.7148,
        "meta_ra_of_asc_node": 156.3742,
        "meta_arg_of_pericenter": 64.7665,
        "meta_mean_anomaly": 295.3811,
        "meta_ephemeris_type": 0,
        "meta_classification_type": "U",
        "meta_norad_cat_id": 35681,
        "meta_element_set_no": 999,
        "meta_rev_at_epoch": 88079,
        "meta_bstar": 6.6889e-05,
        "meta_mean_motion_dot": 4.02e-06,
        "meta_mean_motion_ddot": 0,
        "tle_line1": "1 35681U 09041A   25356.21179641  .00000402  00000+0  66889-4 0  9995",
        "tle_line2": "2 35681  97.7148 156.3742 0002570  64.7665 295.3811 14.74964719880790"
      },
      "geometry": {
        "type": "Point",
        "coordinates": [
          157.8328282972973,
          -8.793638585166907
        ]
      }
    },
    {
      "type": "Feature",
      "properties": {
        "norad_id": 35683,
        "name": "UK-DMC 2",
        "group": "dmc",
        "lat": 29.572192854811917,
        "lon": 126.61527119279867,
        "alt_km": 641.1894209670991,
        "timestamp": "2025-12-22T11:33:20.095951+00:00",
        "meta_object_name": "UK-DMC 2",
        "meta_object_id": "2009-041C",
        "meta_epoch": "2025-12-22T04:54:39.594816",
        "meta_mean_motion": 14.75638677,
        "meta_eccentricity": 0.0001537,
        "meta_inclination": 97.8568,
        "meta_ra_of_asc_node": 130.8403,
        "meta_arg_of_pericenter": 93.5016,
        "meta_mean_anomaly": 266.6369,
        "meta_ephemeris_type": 0,
        "meta_classification_type": "U",
        "meta_norad_cat_id": 35683,
        "meta_element_set_no": 999,
        "meta_rev_at_epoch": 88046,
        "meta_bstar": 8.3277e-05,
        "meta_mean_motion_dot": 5.19e-06,
        "meta_mean_motion_ddot": 0,
        "tle_line1": "1 35683U 09041C   25356.20462494  .00000519  00000+0  83277-4 0  9996",
        "tle_line2": "2 35683  97.8568 130.8403 0001537  93.5016 266.6369 14.75638677880467"
      },
      "geometry": {
        "type": "Point",
        "coordinates": [
          126.61527119279867,
          29.572192854811917
        ]
      }
    },
    {
      "type": "Feature",
      "properties": {
        "norad_id": 40715,
        "name": "DMC3-FM1",
        "group": "dmc",
        "lat": 61.6013103402187,
        "lon": -151.1121002312385,
        "alt_km": 608.3775328124921,
        "timestamp": "2025-12-22T11:33:20.095961+00:00",
        "meta_object_name": "DMC3-FM1",
        "meta_object_id": "2015-032A",
        "meta_epoch": "2025-12-22T04:48:29.471904",
        "meta_mean_motion": 14.8545682,
        "meta_eccentricity": 0.0004071,
        "meta_inclination": 97.6686,
        "meta_ra_of_asc_node": 223.0477,
        "meta_arg_of_pericenter": 282.7159,
        "meta_mean_anomaly": 77.3601,
        "meta_ephemeris_type": 0,
        "meta_classification_type": "U",
        "meta_norad_cat_id": 40715,
        "meta_element_set_no": 999,
        "meta_rev_at_epoch": 56363,
        "meta_bstar": 0.00014378,
        "meta_mean_motion_dot": 1.188e-05,
        "meta_mean_motion_ddot": 0,
        "tle_line1": "1 40715U 15032A   25356.20034111  .00001188  00000+0  14378-3 0  9994",
        "tle_line2": "2 40715  97.6686 223.0477 0004071 282.7159  77.3601 14.85456820563632"
      },
      "geometry": {
        "type": "Point",
        "coordinates": [
          -151.1121002312385,
          61.6013103402187
        ]
      }
    },
    {
      "type": "Feature",
      "properties": {
        "norad_id": 40716,
        "name": "DMC3-FM2",
        "group": "dmc",
        "lat": -56.823343523091694,
        "lon": -123.32808915610579,
        "alt_km": 616.0657824783666,
        "timestamp": "2025-12-22T11:33:20.095971+00:00",
        "meta_object_name": "DMC3-FM2",
        "meta_object_id": "2015-032B",
        "meta_epoch": "2025-12-22T05:20:52.012608",
        "meta_mean_motion": 14.8545721,
        "meta_eccentricity": 0.0004678,
        "meta_inclination": 97.6746,
        "meta_ra_of_asc_node": 224.52,
        "meta_arg_of_pericenter": 289.8528,
        "meta_mean_anomaly": 70.2184,
        "meta_ephemeris_type": 0,
        "meta_classification_type": "U",
        "meta_norad_cat_id": 40716,
        "meta_element_set_no": 999,
        "meta_rev_at_epoch": 56363,
        "meta_bstar": 6.1887e-05,
        "meta_mean_motion_dot": 4.82e-06,
        "meta_mean_motion_ddot": 0,
        "tle_line1": "1 40716U 15032B   25356.22282422  .00000482  00000+0  61887-4 0  9991",
        "tle_line2": "2 40716  97.6746 224.5200 0004678 289.8528  70.2184 14.85457210563633"
      },
      "geometry": {
        "type": "Point",
        "coordinates": [
          -123.32808915610579,
          -56.823343523091694
        ]
      }
    },
    {
      "type": "Feature",
      "properties": {
        "norad_id": 40717,
        "name": "DMC3-FM3",
        "group": "dmc",
        "lat": -6.432922721425938,
        "lon": 45.53728075775752,
        "alt_km": 616.7103661177998,
        "timestamp": "2025-12-22T11:33:20.095981+00:00",
        "meta_object_name": "DMC3-FM3",
        "meta_object_id": "2015-032C",
        "meta_epoch": "2025-12-22T04:15:07.474176",
        "meta_mean_motion": 14.85440626,
        "meta_eccentricity": 0.0004097,
        "meta_inclination": 97.6799,
        "meta_ra_of_asc_node": 226.1155,
        "meta_arg_of_pericenter": 290.9841,
        "meta_mean_anomaly": 69.0936,
        "meta_ephemeris_type": 0,
        "meta_classification_type": "U",
        "meta_norad_cat_id": 40717,
        "meta_element_set_no": 999,
        "meta_rev_at_epoch": 56363,
        "meta_bstar": 9.3783e-06,
        "meta_mean_motion_dot": 2.9e-07,
        "meta_mean_motion_ddot": 0,
        "tle_line1": "1 40717U 15032C   25356.17716984  .00000029  00000+0  93783-5 0  9999",
        "tle_line2": "2 40717  97.6799 226.1155 0004097 290.9841  69.0936 14.85440626563639"
      },
      "geometry": {
        "type": "Point",
        "coordinates": [
          45.53728075775752,
          -6.432922721425938
        ]
      }
    }
  ]
}